[{"OBJECT_NAME":"OBJECT BC","OBJECT_ID":"2025-313BC","EPOCH":"2026-03-09T04:33:08.504064","MEAN_MOTION":15.29126358,"ECCENTRICITY":0.00084789,"INCLINATION":97.3985,"RA_OF_ASC_NODE":144.811,"ARG_OF_PERICENTER":328.9209,"MEAN_ANOMALY":31.1528,"EPHEMERIS_TYPE":0,"CLASSIFICATION_TYPE":"U","NORAD_CAT_ID":67298,"ELEMENT_SET_NO":999,"REV_AT_EPOCH":789,"BSTAR":0.0026410397,"MEAN_MOTION_DOT":0.00075331,"MEAN_MOTION_DDOT":0},{"OBJECT_NAME":"STARLINK-36549","OBJECT_ID":"2026-012T","EPOCH":"2026-03-09T01:56:02.070528","MEAN_MOTION":15.275761,"ECCENTRICITY":0.00015637,"INCLINATION":42.9999,"RA_OF_ASC_NODE":317.3954,"ARG_OF_PERICENTER":262.2929,"MEAN_ANOMALY":97.7745,"EPHEMERIS_TYPE":0,"CLASSIFICATION_TYPE":"U","NORAD_CAT_ID":67510,"ELEMENT_SET_NO":999,"REV_AT_EPOCH":767,"BSTAR":0.00081220898,"MEAN_MOTION_DOT":0.00022153,"MEAN_MOTION_DDOT":0}]
